$$SOE
2461302.500000000, A.D. 2026-Sep-19 00:00:00.0000, 4.255428564002851E+07, 4.909552084705955E+08, -5.454662000152092E+07,
2461309.500000000, A.D. 2026-Sep-26 00:00:00.0000, 3.291336180787995E+07, 4.910744818479593E+08, -5.407535897932203E+07,
2461316.500000000, A.D. 2026-Oct-03 00:00:00.0000, 2.325917027531099E+07, 4.909973496898725E+08, -5.358245719140369E+07,
2461323.500000000, A.D. 2026-Oct-10 00:00:00.0000, 1.359553065758955E+07, 4.907230312325050E+08, -5.306802312680700E+07,
2461330.500000000, A.D. 2026-Oct-17 00:00:00.0000, 3.926298055026167E+06, 4.902508085576775E+08, -5.253217378626007E+07,
2461337.500000000, A.D. 2026-Oct-24 00:00:00.0000, -5.744637533589650E+06, 4.895800279305239E+08, -5.197503480377185E+07,
2461344.500000000, A.D. 2026-Oct-31 00:00:00.0000, -1.541335175335141E+07, 4.887101010011616E+08, -5.139674059094477E+07,
2461351.500000000, A.D. 2026-Nov-07 00:00:00.0000, -2.507588605474576E+07, 4.876405059441828E+08, -5.079743452879310E+07,
2461358.500000000, A.D. 2026-Nov-14 00:00:00.0000, -3.472824727576771E+07, 4.863707894236337E+08, -5.017726915282598E+07,
2461365.500000000, A.D. 2026-Nov-21 00:00:00.0000, -4.436640845766591E+07, 4.849005700656632E+08, -4.953640610944617E+07,
2461372.500000000, A.D. 2026-Nov-28 00:00:00.0000, -5.398631189297068E+07, 4.832295404283683E+08, -4.887501603722498E+07,
2461379.500000000, A.D. 2026-Dec-05 00:00:00.0000, -6.358387078897247E+07, 4.813574668093673E+08, -4.819327875756046E+07,
2461386.500000000, A.D. 2026-Dec-12 00:00:00.0000, -7.315496938432100E+07, 4.792841900014490E+08, -4.749138353517687E+07,
2461393.500000000, A.D. 2026-Dec-19 00:00:00.0000, -8.269546340748967E+07, 4.770096270006858E+08, -4.676952923420733E+07,
2461400.500000000, A.D. 2026-Dec-26 00:00:00.0000, -9.220118102218211E+07, 4.745337727958518E+08, -4.602792442683077E+07,
2461407.500000000, A.D. 2027-Jan-02 00:00:00.0000, -1.016679239874647E+08, 4.718567020460733E+08, -4.526678749475954E+07,
2461414.500000000, A.D. 2027-Jan-09 00:00:00.0000, -1.110914689193321E+08, 4.689785706655278E+08, -4.448634673236528E+07,
2461421.500000000, A.D. 2027-Jan-16 00:00:00.0000, -1.204675686218924E+08, 4.658996173226373E+08, -4.368684045378098E+07,
2461428.500000000, A.D. 2027-Jan-23 00:00:00.0000, -1.297919534457757E+08, 4.626201648122561E+08, -4.286851711122997E+07,
2461435.500000000, A.D. 2027-Jan-30 00:00:00.0000, -1.390603324898835E+08, 4.591406212506949E+08, -4.203163544544923E+07,
2461442.500000000, A.D. 2027-Feb-06 00:00:00.0000, -1.482683942259495E+08, 4.554614814310848E+08, -4.117646467914501E+07,
2461449.500000000, A.D. 2027-Feb-13 00:00:00.0000, -1.574118070105905E+08, 4.515833295568674E+08, -4.030328461154830E+07,
2461456.500000000, A.D. 2027-Feb-20 00:00:00.0000, -1.664862218517250E+08, 4.475068425608951E+08, -3.941238546199572E+07,
2461463.500000000, A.D. 2027-Feb-27 00:00:00.0000, -1.754872760349426E+08, 4.432327907921550E+08, -3.850406785261790E+07,
2461470.500000000, A.D. 2027-Mar-06 00:00:00.0000, -1.844105945952845E+08, 4.387620379879625E+08, -3.757864304918273E+07,
2461477.500000000, A.D. 2027-Mar-13 00:00:00.0000, -1.932517912380708E+08, 4.340955425793621E+08, -3.663643314596102E+07,
2461484.500000000, A.D. 2027-Mar-20 00:00:00.0000, -2.020064698395015E+08, 4.292343594924083E+08, -3.567777115910789E+07,
2461491.500000000, A.D. 2027-Mar-27 00:00:00.0000, -2.106702263262818E+08, 4.241796418921407E+08, -3.470300109144753E+07,
2461498.500000000, A.D. 2027-Apr-03 00:00:00.0000, -2.192386507329958E+08, 4.189326428171178E+08, -3.371247799065349E+07,
2461505.500000000, A.D. 2027-Apr-10 00:00:00.0000, -2.277073293775996E+08, 4.134947167232317E+08, -3.270656800405872E+07,
2461512.500000000, A.D. 2027-Apr-17 00:00:00.0000, -2.360718471344153E+08, 4.078673209180503E+08, -3.168564843277401E+07,
2461519.500000000, A.D. 2027-Apr-24 00:00:00.0000, -2.443277897266715E+08, 4.020520168188750E+08, -3.065010779690751E+07,
2461526.500000000, A.D. 2027-May-01 00:00:00.0000, -2.524707457400608E+08, 3.960504710573819E+08, -2.960034593649396E+07,
2461533.500000000, A.D. 2027-May-08 00:00:00.0000, -2.604963080511338E+08, 3.898644571741089E+08, -2.853677411456376E+07,
2461540.500000000, A.D. 2027-May-15 00:00:00.0000, -2.684000761689937E+08, 3.834958588517748E+08, -2.745981490672852E+07,
2461547.500000000, A.D. 2027-May-22 00:00:00.0000, -2.761776610543347E+08, 3.769466720919166E+08, -2.636990194525401E+07,
2461554.500000000, A.D. 2027-May-29 00:00:00.0000, -2.838246890581931E+08, 3.702190048597560E+08, -2.526747994431484E+07,
2461561.500000000, A.D. 2027-Jun-05 00:00:00.0000, -2.913368040963333E+08, 3.633150773214505E+08, -2.415300483065294E+07,
2461568.500000000, A.D. 2027-Jun-12 00:00:00.0000, -2.987096700682279E+08, 3.562372231009012E+08, -2.302694375987382E+07,
2461575.500000000, A.D. 2027-Jun-19 00:00:00.0000, -3.059389738509866E+08, 3.489878906161507E+08, -2.188977506382789E+07,
2461582.500000000, A.D. 2027-Jun-26 00:00:00.0000, -3.130204285876021E+08, 3.415696442277701E+08, -2.074198817517893E+07,
2461589.500000000, A.D. 2027-Jul-03 00:00:00.0000, -3.199497771363155E+08, 3.339851652009940E+08, -1.958408353971025E+07,
2461596.500000000, A.D. 2027-Jul-10 00:00:00.0000, -3.267227956430996E+08, 3.262372524839140E+08, -1.841657251818404E+07,
2461603.500000000, A.D. 2027-Jul-17 00:00:00.0000, -3.333352971994474E+08, 3.183288232565691E+08, -1.723997728343180E+07,
2461610.500000000, A.D. 2027-Jul-24 00:00:00.0000, -3.397831354270732E+08, 3.102629131819105E+08, -1.605483073133764E+07,
2461617.500000000, A.D. 2027-Jul-31 00:00:00.0000, -3.460622075754032E+08, 3.020426765878687E+08, -1.486167642337602E+07,
2461624.500000000, A.D. 2027-Aug-07 00:00:00.0000, -3.521684573292844E+08, 2.936713877257510E+08, -1.366106844737832E+07,
2461631.500000000, A.D. 2027-Aug-14 00:00:00.0000, -3.580978796245876E+08, 2.851524428455734E+08, -1.245357100555593E+07,
2461638.500000000, A.D. 2027-Aug-21 00:00:00.0000, -3.638465268479734E+08, 2.764893597181824E+08, -1.123975806073187E+07,
2461645.500000000, A.D. 2027-Aug-28 00:00:00.0000, -3.694105129819208E+08, 2.676857757980421E+08, -1.002021325601409E+07,
2461652.500000000, A.D. 2027-Sep-04 00:00:00.0000, -3.747860168719096E+08, 2.587454475185125E+08, -8.795529794461355E+06,
2461659.500000000, A.D. 2027-Sep-11 00:00:00.0000, -3.799692860094526E+08, 2.496722500516549E+08, -7.566310204970166E+06,
2461666.500000000, A.D. 2027-Sep-18 00:00:00.0000, -3.849566406944643E+08, 2.404701768778504E+08, -6.333166059925050E+06,
2461673.500000000, A.D. 2027-Sep-25 00:00:00.0000, -3.897444783429264E+08, 2.311433390832673E+08, -5.096717672006145E+06,
2461680.500000000, A.D. 2027-Oct-02 00:00:00.0000, -3.943292778583611E+08, 2.216959644083236E+08, -3.857593774780542E+06,
2461687.500000000, A.D. 2027-Oct-09 00:00:00.0000, -3.987076040372106E+08, 2.121323960380316E+08, -2.616431189467087E+06,
2461694.500000000, A.D. 2027-Oct-16 00:00:00.0000, -4.028761119368004E+08, 2.024570910745652E+08, -1.373874488102108E+06,
2461701.500000000, A.D. 2027-Oct-23 00:00:00.0000, -4.068315509373124E+08, 1.926746186815509E+08, -1.305756773768663E+05,
2461708.500000000, A.D. 2027-Oct-30 00:00:00.0000, -4.105707681138894E+08, 1.827896585056246E+08, 1.112806112360001E+06,
2461715.500000000, A.D. 2027-Nov-06 00:00:00.0000, -4.140907120733535E+08, 1.728070004987128E+08, 2.355605131721005E+06,
2461722.500000000, A.D. 2027-Nov-13 00:00:00.0000, -4.173884392331586E+08, 1.627315440614240E+08, 3.597149722631522E+06,
2461729.500000000, A.D. 2027-Nov-20 00:00:00.0000, -4.204611196312961E+08, 1.525682943202285E+08, 4.836762789427653E+06,
2461736.500000000, A.D. 2027-Nov-27 00:00:00.0000, -4.233060406366672E+08, 1.423223585000993E+08, 6.073762124632888E+06,
2461743.500000000, A.D. 2027-Dec-04 00:00:00.0000, -4.259206105722400E+08, 1.319989433025559E+08, 7.307460849393629E+06,
2461750.500000000, A.D. 2027-Dec-11 00:00:00.0000, -4.283023627923587E+08, 1.216033523235248E+08, 8.537167939709485E+06,
2461757.500000000, A.D. 2027-Dec-18 00:00:00.0000, -4.304489599286687E+08, 1.111409831719827E+08, 9.762188785017960E+06,
2461764.500000000, A.D. 2027-Dec-25 00:00:00.0000, -4.323581981407902E+08, 1.006173242874716E+08, 1.098182576452616E+07,
2461771.500000000, A.D. 2028-Jan-01 00:00:00.0000, -4.340280113181244E+08, 9.003795147157978E+07, 1.219537883811541E+07,
$$EOE